{
    "links": {
        "self": "http://www.neowsapp.com/rest/v1/neo/3719725?api_key=iIulBulltgU6a56xZRHN4H3l9WmuAYTsLGpBGhQ2"
    },
    "id": "3719725",
    "neo_reference_id": "3719725",
    "name": "(2015 KY56)",
    "designation": "2015 KY56",
    "nasa_jpl_url": "http://ssd.jpl.nasa.gov/sbdb.cgi?sstr=3719725",
    "absolute_magnitude_h": 26.5,
    "estimated_diameter": {
        "kilometers": {
            "estimated_diameter_min": 0.0133215567,
            "estimated_diameter_max": 0.0297879063
        },
        "meters": {
            "estimated_diameter_min": 13.3215566698,
            "estimated_diameter_max": 29.7879062798
        },
        "miles": {
            "estimated_diameter_min": 0.008277629,
            "estimated_diameter_max": 0.0185093411
        },
        "feet": {
            "estimated_diameter_min": 43.7058959846,
            "estimated_diameter_max": 97.7293544391
        }
    },
    "is_potentially_hazardous_asteroid": false,
    "close_approach_data": [
        {
            "close_approach_date": "2015-05-25",
            "close_approach_date_full": "2015-May-25 05:40",
            "epoch_date_close_approach": 1432532400000,
            "relative_velocity": {
                "kilometers_per_second": "13.029473674",
                "kilometers_per_hour": "46906.1052263435",
                "miles_per_hour": "29145.6296613355"
            },
            "miss_distance": {
                "astronomical": "0.0145453354",
                "lunar": "5.6581354706",
                "kilometers": "2175951.194275598",
                "miles": "1352073.3756473324"
            },
            "orbiting_body": "Earth"
        }
    ],
    "orbital_data": {
        "orbit_id": "5",
        "orbit_determination_date": "2019-12-04 07:14:53",
        "first_observation_date": "2015-05-22",
        "last_observation_date": "2015-05-24",
        "data_arc_in_days": 2,
        "observations_used": 23,
        "orbit_uncertainty": "8",
        "minimum_orbit_intersection": ".014313",
        "jupiter_tisserand_invariant": "3.895",
        "epoch_osculation": "2457165.5",
        "eccentricity": ".4765925888873529",
        "semi_major_axis": "1.792842040047592",
        "inclination": "15.92017897049351",
        "ascending_node_longitude": "61.38326774308696",
        "orbital_period": "876.822060355625",
        "perihelion_distance": ".9383868107152268",
        "perihelion_argument": "223.9957528197248",
        "aphelion_distance": "2.647297269379957",
        "perihelion_time": "2457201.496802151333",
        "mean_anomaly": "345.2206629367606",
        "mean_motion": ".4105736115421067",
        "equinox": "J2000",
        "orbit_class": {
            "orbit_class_type": "APO",
            "orbit_class_description": "Near-Earth asteroid orbits which cross the Earth’s orbit similar to that of 1862 Apollo",
            "orbit_class_range": "a (semi-major axis) > 1.0 AU; q (perihelion) < 1.017 AU"
        }
    },
    "is_sentry_object": false
}